[{"OBJECT_NAME":"STARLINK-30804","OBJECT_ID":"2023-166F","EPOCH":"2026-03-09T17:43:38.831232","MEAN_MOTION":15.30175871,"ECCENTRICITY":0.00011553,"INCLINATION":53.1611,"RA_OF_ASC_NODE":219.6057,"ARG_OF_PERICENTER":81.157,"MEAN_ANOMALY":278.9562,"EPHEMERIS_TYPE":0,"CLASSIFICATION_TYPE":"U","NORAD_CAT_ID":58155,"ELEMENT_SET_NO":999,"REV_AT_EPOCH":13318,"BSTAR":-7.0545667e-5,"MEAN_MOTION_DOT":-2.446e-5,"MEAN_MOTION_DDOT":0},{"OBJECT_NAME":"SL-3 R\/B","OBJECT_ID":"1982-079B","EPOCH":"2026-03-09T22:18:18.158976","MEAN_MOTION":15.24805533,"ECCENTRICITY":0.00250364,"INCLINATION":81.1481,"RA_OF_ASC_NODE":192.7939,"ARG_OF_PERICENTER":164.0597,"MEAN_ANOMALY":196.143,"EPHEMERIS_TYPE":0,"CLASSIFICATION_TYPE":"U","NORAD_CAT_ID":13403,"ELEMENT_SET_NO":999,"REV_AT_EPOCH":37773,"BSTAR":0.00032485557,"MEAN_MOTION_DOT":8.157e-5,"MEAN_MOTION_DDOT":0}]
